{
  "type": "FeatureCollection",
  "features": [
    {
      "type": "Feature",
      "properties": {
        "norad_id": 34765,
        "name": "IRIDIUM 33 DEB",
        "group": "iridium-33-debris",
        "lat": 79.32054576105767,
        "lon": 53.841967928350705,
        "alt_km": 758.1812754976936,
        "timestamp": "2025-12-09T20:37:09.674273+00:00",
        "meta_object_name": "IRIDIUM 33 DEB",
        "meta_object_id": "1997-051LJ",
        "meta_epoch": "2025-12-09T14:17:11.892192",
        "meta_mean_motion": 14.40453375,
        "meta_eccentricity": 0.00151251,
        "meta_inclination": 86.3395,
        "meta_ra_of_asc_node": 34.1109,
        "meta_arg_of_pericenter": 222.4488,
        "meta_mean_anomaly": 290.2103,
        "meta_ephemeris_type": 0,
        "meta_classification_type": "U",
        "meta_norad_cat_id": 34765,
        "meta_element_set_no": 999,
        "meta_rev_at_epoch": 87568,
        "meta_bstar": 0.0006924344,
        "meta_mean_motion_dot": 2.222e-05,
        "meta_mean_motion_ddot": 0,
        "tle_line1": "1 34765U 97051LJ  25343.59527653  .00002222  00000+0  69243-3 0  9990",
        "tle_line2": "2 34765  86.3395  34.1109 0015125 222.4488 290.2103 14.40453375875680"
      },
      "geometry": {
        "type": "Point",
        "coordinates": [
          53.841967928350705,
          79.32054576105767
        ]
      }
    },
    {
      "type": "Feature",
      "properties": {
        "norad_id": 34833,
        "name": "IRIDIUM 33 DEB",
        "group": "iridium-33-debris",
        "lat": 61.894852286077985,
        "lon": 59.01877762121354,
        "alt_km": 701.1001454135294,
        "timestamp": "2025-12-09T20:37:09.674284+00:00",
        "meta_object_name": "IRIDIUM 33 DEB",
        "meta_object_id": "1997-051MH",
        "meta_epoch": "2025-12-09T05:43:51.843072",
        "meta_mean_motion": 14.52344467,
        "meta_eccentricity": 0.0021797,
        "meta_inclination": 86.3929,
        "meta_ra_of_asc_node": 52.5028,
        "meta_arg_of_pericenter": 109.2817,
        "meta_mean_anomaly": 311.6946,
        "meta_ephemeris_type": 0,
        "meta_classification_type": "U",
        "meta_norad_cat_id": 34833,
        "meta_element_set_no": 999,
        "meta_rev_at_epoch": 87664,
        "meta_bstar": 0.0011811,
        "meta_mean_motion_dot": 4.84e-05,
        "meta_mean_motion_ddot": 0,
        "tle_line1": "1 34833U 97051MH  25343.23879448  .00004840  00000+0  11811-2 0  9994",
        "tle_line2": "2 34833  86.3929  52.5028 0021797 109.2817 311.6946 14.52344467876647"
      },
      "geometry": {
        "type": "Point",
        "coordinates": [
          59.01877762121354,
          61.894852286077985
        ]
      }
    },
    {
      "type": "Feature",
      "properties": {
        "norad_id": 34870,
        "name": "IRIDIUM 33 DEB",
        "group": "iridium-33-debris",
        "lat": 34.284208980737205,
        "lon": 132.8807013738618,
        "alt_km": 631.632182678627,
        "timestamp": "2025-12-09T20:37:09.674294+00:00",
        "meta_object_name": "IRIDIUM 33 DEB",
        "meta_object_id": "1997-051MQ",
        "meta_epoch": "2025-12-07T16:41:29.147136",
        "meta_mean_motion": 14.76272854,
        "meta_eccentricity": 0.00154972,
        "meta_inclination": 86.3098,
        "meta_ra_of_asc_node": 316.3932,
        "meta_arg_of_pericenter": 201.8058,
        "meta_mean_anomaly": 332.1989,
        "meta_ephemeris_type": 0,
        "meta_classification_type": "U",
        "meta_norad_cat_id": 34870,
        "meta_element_set_no": 999,
        "meta_rev_at_epoch": 88836,
        "meta_bstar": 0.0021061979,
        "meta_mean_motion_dot": 0.00014658,
        "meta_mean_motion_ddot": 0,
        "tle_line1": "1 34870U 97051MQ  25341.69547624  .00014658  00000+0  21062-2 0  9998",
        "tle_line2": "2 34870  86.3098 316.3932 0015497 201.8058 332.1989 14.76272854888369"
      },
      "geometry": {
        "type": "Point",
        "coordinates": [
          132.8807013738618,
          34.284208980737205
        ]
      }
    },
    {
      "type": "Feature",
      "properties": {
        "norad_id": 34896,
        "name": "IRIDIUM 33 DEB",
        "group": "iridium-33-debris",
        "lat": 86.0406740727696,
        "lon": 79.92697601574436,
        "alt_km": 677.3752993866938,
        "timestamp": "2025-12-09T20:37:09.674305+00:00",
        "meta_object_name": "IRIDIUM 33 DEB",
        "meta_object_id": "1997-051MY",
        "meta_epoch": "2025-12-09T05:43:17.078304",
        "meta_mean_motion": 14.66220489,
        "meta_eccentricity": 0.0024034,
        "meta_inclination": 86.3293,
        "meta_ra_of_asc_node": 328.2553,
        "meta_arg_of_pericenter": 227.4371,
        "meta_mean_anomaly": 189.808,
        "meta_ephemeris_type": 0,
        "meta_classification_type": "U",
        "meta_norad_cat_id": 34896,
        "meta_element_set_no": 999,
        "meta_rev_at_epoch": 87568,
        "meta_bstar": 0.0013765,
        "meta_mean_motion_dot": 7.633e-05,
        "meta_mean_motion_ddot": 0,
        "tle_line1": "1 34896U 97051MY  25343.23839211  .00007633  00000+0  13765-2 0  9990",
        "tle_line2": "2 34896  86.3293 328.2553 0024034 227.4371 189.8080 14.66220489875680"
      },
      "geometry": {
        "type": "Point",
        "coordinates": [
          79.92697601574436,
          86.0406740727696
        ]
      }
    },
    {
      "type": "Feature",
      "properties": {
        "norad_id": 34926,
        "name": "IRIDIUM 33 DEB",
        "group": "iridium-33-debris",
        "lat": -57.97911274872151,
        "lon": 3.397544600882727,
        "alt_km": 665.3285655634145,
        "timestamp": "2025-12-09T20:37:09.674316+00:00",
        "meta_object_name": "IRIDIUM 33 DEB",
        "meta_object_id": "1997-051NF",
        "meta_epoch": "2025-12-09T03:00:38.009952",
        "meta_mean_motion": 14.54144924,
        "meta_eccentricity": 0.00760026,
        "meta_inclination": 86.1319,
        "meta_ra_of_asc_node": 9.9484,
        "meta_arg_of_pericenter": 305.1684,
        "meta_mean_anomaly": 118.2748,
        "meta_ephemeris_type": 0,
        "meta_classification_type": "U",
        "meta_norad_cat_id": 34926,
        "meta_element_set_no": 999,
        "meta_rev_at_epoch": 86404,
        "meta_bstar": 0.0063092717,
        "meta_mean_motion_dot": 0.00027819,
        "meta_mean_motion_ddot": 0,
        "tle_line1": "1 34926U 97051NF  25343.12543993  .00027819  00000+0  63093-2 0  9998",
        "tle_line2": "2 34926  86.1319   9.9484 0076002 305.1684 118.2748 14.54144924864041"
      },
      "geometry": {
        "type": "Point",
        "coordinates": [
          3.397544600882727,
          -57.97911274872151
        ]
      }
    },
    {
      "type": "Feature",
      "properties": {
        "norad_id": 34985,
        "name": "IRIDIUM 33 DEB",
        "group": "iridium-33-debris",
        "lat": -14.344328601374098,
        "lon": -120.96156523994127,
        "alt_km": 744.7933385977631,
        "timestamp": "2025-12-09T20:37:09.674327+00:00",
        "meta_object_name": "IRIDIUM 33 DEB",
        "meta_object_id": "1997-051NR",
        "meta_epoch": "2025-12-09T11:29:05.215776",
        "meta_mean_motion": 14.41988127,
        "meta_eccentricity": 0.00203885,
        "meta_inclination": 86.3692,
        "meta_ra_of_asc_node": 58.2704,
        "meta_arg_of_pericenter": 230.9177,
        "meta_mean_anomaly": 148.9358,
        "meta_ephemeris_type": 0,
        "meta_classification_type": "U",
        "meta_norad_cat_id": 34985,
        "meta_element_set_no": 999,
        "meta_rev_at_epoch": 87128,
        "meta_bstar": 0.0011381521,
        "meta_mean_motion_dot": 3.759e-05,
        "meta_mean_motion_ddot": 0,
        "tle_line1": "1 34985U 97051NR  25343.47853259  .00003759  00000+0  11382-2 0  9991",
        "tle_line2": "2 34985  86.3692  58.2704 0020388 230.9177 148.9358 14.41988127871280"
      },
      "geometry": {
        "type": "Point",
        "coordinates": [
          -120.96156523994127,
          -14.344328601374098
        ]
      }
    },
    {
      "type": "Feature",
      "properties": {
        "norad_id": 35051,
        "name": "IRIDIUM 33 DEB",
        "group": "iridium-33-debris",
        "lat": 68.86601654863269,
        "lon": 19.69024059079178,
        "alt_km": 720.3648732951851,
        "timestamp": "2025-12-09T20:37:09.674338+00:00",
        "meta_object_name": "IRIDIUM 33 DEB",
        "meta_object_id": "1997-051NX",
        "meta_epoch": "2025-12-09T08:41:17.541312",
        "meta_mean_motion": 14.47575275,
        "meta_eccentricity": 0.00106574,
        "meta_inclination": 86.3242,
        "meta_ra_of_asc_node": 10.3338,
        "meta_arg_of_pericenter": 100.3191,
        "meta_mean_anomaly": 259.9214,
        "meta_ephemeris_type": 0,
        "meta_classification_type": "U",
        "meta_norad_cat_id": 35051,
        "meta_element_set_no": 999,
        "meta_rev_at_epoch": 86947,
        "meta_bstar": 0.0010277257,
        "meta_mean_motion_dot": 3.803e-05,
        "meta_mean_motion_ddot": 0,
        "tle_line1": "1 35051U 97051NX  25343.36200858  .00003803  00000+0  10277-2 0  9997",
        "tle_line2": "2 35051  86.3242  10.3338 0010657 100.3191 259.9214 14.47575275869476"
      },
      "geometry": {
        "type": "Point",
        "coordinates": [
          19.69024059079178,
          68.86601654863269
        ]
      }
    }
  ]
}